{
  "type": "FeatureCollection",
  "features": [
    {
      "type": "Feature",
      "properties": {
        "norad_id": 35647,
        "name": "COSMOS 2251 DEB",
        "group": "cosmos-2251-debris",
        "lat": 70.72284733532472,
        "lon": 54.45850606921779,
        "alt_km": 729.6272231363091,
        "timestamp": "2025-12-15T11:38:37.548412+00:00",
        "meta_object_name": "COSMOS 2251 DEB",
        "meta_object_id": "1993-036ANN",
        "meta_epoch": "2025-12-14T13:33:39.686688",
        "meta_mean_motion": 14.43645909,
        "meta_eccentricity": 0.00456042,
        "meta_inclination": 74.0231,
        "meta_ra_of_asc_node": 291.1692,
        "meta_arg_of_pericenter": 29.8407,
        "meta_mean_anomaly": 330.5335,
        "meta_ephemeris_type": 0,
        "meta_classification_type": "U",
        "meta_norad_cat_id": 35647,
        "meta_element_set_no": 999,
        "meta_rev_at_epoch": 67690,
        "meta_bstar": 0.00083775206,
        "meta_mean_motion_dot": 2.853e-05,
        "meta_mean_motion_ddot": 0,
        "tle_line1": "1 35647U 93036ANN 25348.56504267  .00002853  00000+0  83775-3 0  9993",
        "tle_line2": "2 35647  74.0231 291.1692 0045604  29.8407 330.5335 14.43645909676908"
      },
      "geometry": {
        "type": "Point",
        "coordinates": [
          54.45850606921779,
          70.72284733532472
        ]
      }
    },
    {
      "type": "Feature",
      "properties": {
        "norad_id": 35650,
        "name": "COSMOS 2251 DEB",
        "group": "cosmos-2251-debris",
        "lat": -49.97818204736314,
        "lon": -6.473980421479352,
        "alt_km": 628.058900740748,
        "timestamp": "2025-12-15T11:38:37.548421+00:00",
        "meta_object_name": "COSMOS 2251 DEB",
        "meta_object_id": "1993-036ANR",
        "meta_epoch": "2025-12-14T08:25:39.461088",
        "meta_mean_motion": 14.83681914,
        "meta_eccentricity": 0.00146754,
        "meta_inclination": 74.0466,
        "meta_ra_of_asc_node": 15.6866,
        "meta_arg_of_pericenter": 62.1193,
        "meta_mean_anomaly": 310.7797,
        "meta_ephemeris_type": 0,
        "meta_classification_type": "U",
        "meta_norad_cat_id": 35650,
        "meta_element_set_no": 999,
        "meta_rev_at_epoch": 87658,
        "meta_bstar": 0.0017772304,
        "meta_mean_motion_dot": 0.0001471,
        "meta_mean_motion_ddot": 0,
        "tle_line1": "1 35650U 93036ANR 25348.35115117  .00014710  00000+0  17772-2 0  9994",
        "tle_line2": "2 35650  74.0466  15.6866 0014675  62.1193 310.7797 14.83681914876588"
      },
      "geometry": {
        "type": "Point",
        "coordinates": [
          -6.473980421479352,
          -49.97818204736314
        ]
      }
    },
    {
      "type": "Feature",
      "properties": {
        "norad_id": 35660,
        "name": "COSMOS 2251 DEB",
        "group": "cosmos-2251-debris",
        "lat": -73.979233454974,
        "lon": 42.75138628577243,
        "alt_km": 719.7381774793557,
        "timestamp": "2025-12-15T11:38:37.548431+00:00",
        "meta_object_name": "COSMOS 2251 DEB",
        "meta_object_id": "1993-036APB",
        "meta_epoch": "2025-12-13T02:38:42.179424",
        "meta_mean_motion": 14.49930822,
        "meta_eccentricity": 0.00184394,
        "meta_inclination": 74.0397,
        "meta_ra_of_asc_node": 132.5343,
        "meta_arg_of_pericenter": 281.2013,
        "meta_mean_anomaly": 198.4708,
        "meta_ephemeris_type": 0,
        "meta_classification_type": "U",
        "meta_norad_cat_id": 35660,
        "meta_element_set_no": 999,
        "meta_rev_at_epoch": 65876,
        "meta_bstar": 0.00075946704,
        "meta_mean_motion_dot": 2.917e-05,
        "meta_mean_motion_ddot": 0,
        "tle_line1": "1 35660U 93036APB 25347.11021041  .00002917  00000+0  75947-3 0  9995",
        "tle_line2": "2 35660  74.0397 132.5343 0018439 281.2013 198.4708 14.49930822658766"
      },
      "geometry": {
        "type": "Point",
        "coordinates": [
          42.75138628577243,
          -73.979233454974
        ]
      }
    },
    {
      "type": "Feature",
      "properties": {
        "norad_id": 35661,
        "name": "COSMOS 2251 DEB",
        "group": "cosmos-2251-debris",
        "lat": -73.94524562406954,
        "lon": -10.735657181466026,
        "alt_km": 618.7105375770143,
        "timestamp": "2025-12-15T11:38:37.548441+00:00",
        "meta_object_name": "COSMOS 2251 DEB",
        "meta_object_id": "1993-036APC",
        "meta_epoch": "2025-12-13T00:17:15.706176",
        "meta_mean_motion": 14.86576053,
        "meta_eccentricity": 0.00878892,
        "meta_inclination": 74.0136,
        "meta_ra_of_asc_node": 79.1868,
        "meta_arg_of_pericenter": 183.3454,
        "meta_mean_anomaly": 176.7151,
        "meta_ephemeris_type": 0,
        "meta_classification_type": "U",
        "meta_norad_cat_id": 35661,
        "meta_element_set_no": 999,
        "meta_rev_at_epoch": 87872,
        "meta_bstar": 0.0013832981,
        "meta_mean_motion_dot": 0.00013144,
        "meta_mean_motion_ddot": 0,
        "tle_line1": "1 35661U 93036APC 25347.01198734  .00013144  00000+0  13833-2 0  9998",
        "tle_line2": "2 35661  74.0136  79.1868 0087889 183.3454 176.7151 14.86576053878726"
      },
      "geometry": {
        "type": "Point",
        "coordinates": [
          -10.735657181466026,
          -73.94524562406954
        ]
      }
    },
    {
      "type": "Feature",
      "properties": {
        "norad_id": 35663,
        "name": "COSMOS 2251 DEB",
        "group": "cosmos-2251-debris",
        "lat": -47.664797195804155,
        "lon": 101.03803209655955,
        "alt_km": 683.1226220024237,
        "timestamp": "2025-12-15T11:38:37.548451+00:00",
        "meta_object_name": "COSMOS 2251 DEB",
        "meta_object_id": "1993-036APE",
        "meta_epoch": "2025-12-13T02:32:21.539904",
        "meta_mean_motion": 14.65684168,
        "meta_eccentricity": 0.00063461,
        "meta_inclination": 74.0174,
        "meta_ra_of_asc_node": 123.959,
        "meta_arg_of_pericenter": 198.7091,
        "meta_mean_anomaly": 161.3846,
        "meta_ephemeris_type": 0,
        "meta_classification_type": "U",
        "meta_norad_cat_id": 35663,
        "meta_element_set_no": 999,
        "meta_rev_at_epoch": 73387,
        "meta_bstar": 0.0025042609,
        "meta_mean_motion_dot": 0.00013628,
        "meta_mean_motion_ddot": 0,
        "tle_line1": "1 35663U 93036APE 25347.10580486  .00013628  00000+0  25043-2 0  9992",
        "tle_line2": "2 35663  74.0174 123.9590 0006346 198.7091 161.3846 14.65684168733877"
      },
      "geometry": {
        "type": "Point",
        "coordinates": [
          101.03803209655955,
          -47.664797195804155
        ]
      }
    },
    {
      "type": "Feature",
      "properties": {
        "norad_id": 35667,
        "name": "COSMOS 2251 DEB",
        "group": "cosmos-2251-debris",
        "lat": -54.44892886093638,
        "lon": 111.29459548218159,
        "alt_km": 703.5909644690673,
        "timestamp": "2025-12-15T11:38:37.548460+00:00",
        "meta_object_name": "COSMOS 2251 DEB",
        "meta_object_id": "1993-036APJ",
        "meta_epoch": "2025-12-14T16:10:30.846432",
        "meta_mean_motion": 14.60047432,
        "meta_eccentricity": 0.00195944,
        "meta_inclination": 74.0556,
        "meta_ra_of_asc_node": 136.4208,
        "meta_arg_of_pericenter": 197.4569,
        "meta_mean_anomaly": 162.5926,
        "meta_ephemeris_type": 0,
        "meta_classification_type": "U",
        "meta_norad_cat_id": 35667,
        "meta_element_set_no": 999,
        "meta_rev_at_epoch": 70831,
        "meta_bstar": 0.0010671241,
        "meta_mean_motion_dot": 5.114e-05,
        "meta_mean_motion_ddot": 0,
        "tle_line1": "1 35667U 93036APJ 25348.67396813  .00005114  00000+0  10671-2 0  9990",
        "tle_line2": "2 35667  74.0556 136.4208 0019594 197.4569 162.5926 14.60047432708310"
      },
      "geometry": {
        "type": "Point",
        "coordinates": [
          111.29459548218159,
          -54.44892886093638
        ]
      }
    },
    {
      "type": "Feature",
      "properties": {
        "norad_id": 35668,
        "name": "COSMOS 2251 DEB",
        "group": "cosmos-2251-debris",
        "lat": 73.04588709722188,
        "lon": -34.53541010941658,
        "alt_km": 715.0460178730837,
        "timestamp": "2025-12-15T11:38:37.548470+00:00",
        "meta_object_name": "COSMOS 2251 DEB",
        "meta_object_id": "1993-036APK",
        "meta_epoch": "2025-12-10T09:50:46.743936",
        "meta_mean_motion": 14.63977041,
        "meta_eccentricity": 0.00831886,
        "meta_inclination": 74.0449,
        "meta_ra_of_asc_node": 224.9926,
        "meta_arg_of_pericenter": 330.6481,
        "meta_mean_anomaly": 29.0026,
        "meta_ephemeris_type": 0,
        "meta_classification_type": "U",
        "meta_norad_cat_id": 35668,
        "meta_element_set_no": 999,
        "meta_rev_at_epoch": 87613,
        "meta_bstar": 0.00039699898,
        "meta_mean_motion_dot": 2.154e-05,
        "meta_mean_motion_ddot": 0,
        "tle_line1": "1 35668U 93036APK 25344.41026324  .00002154  00000+0  39700-3 0  9992",
        "tle_line2": "2 35668  74.0449 224.9926 0083188 330.6481  29.0026 14.63977041876131"
      },
      "geometry": {
        "type": "Point",
        "coordinates": [
          -34.53541010941658,
          73.04588709722188
        ]
      }
    }
  ]
}